GLOBALSTAR M075         
1 37192U 10054E   25252.51754214 -.00000083  00000+0  11692-3 0  9990
2 37192  51.9943 284.7730 0000360 106.9466  57.7737 12.62267635686496
GLOBALSTAR M073         
1 37193U 10054F   25252.27625582 -.00000104  00000+0  25597-6 0  9995
2 37193  52.0047 199.3875 0000529  80.8905  66.6933 12.62262440688454
GLOBALSTAR M083         
1 37739U 11033A   25252.90829944 -.00000071  00000+0  18397-3 0  9997
2 37739  51.9850 146.0797 0000800  70.5853  10.2850 12.62275536657552
GLOBALSTAR M088         
1 37740U 11033B   25252.64438213 -.00000111  00000+0 -38293-4 0  9999
2 37740  52.0223  52.6284 0000758  82.9505 357.9141 12.62267872653066
GLOBALSTAR M091         
1 37741U 11033C   25252.66228501 -.00000104  00000+0 -10859-5 0  9990
2 37741  52.0026  15.9525 0000871  85.5756  18.0613 12.62270030653857
GLOBALSTAR M085         
1 37742U 11033D   25252.40649189 -.00000077  00000+0  15049-3 0  9994
2 37742  52.0152 327.7824 0000701  91.1752 349.0585 12.62264521654332
GLOBALSTAR M081         
1 37743U 11033E   25252.68001966 -.00000080  00000+0  13275-3 0  9993
2 37743  51.9981 329.7063 0000726 109.2798  13.5663 12.62267968654514
GLOBALSTAR M089         
1 37744U 11033F   25252.48726397 -.00000081  00000+0  12532-3 0  9990
2 37744  51.9925 284.5050 0000324 148.5041 358.8734 12.62266497655339
